{"type": "FeatureCollection", "features": [ {"type": "Feature", "properties": {"norad_id": 33917, "name": "COSMOS 2251 DEB", "group": "cosmos-2251-debris", "lat": -65.94858242287155, "lon": -31.99923221013039, "alt_km": 829.7446142497793, "timestamp": "2025-12-21T07:34:34.907746+00:00", "meta": {"OBJECT_NAME": "COSMOS 2251 DEB", "OBJECT_ID": "1993-036DW", "EPOCH": "2025-12-20T09:18:54.626400", "MEAN_MOTION": 13.69374091, "ECCENTRICITY": 0.03312792, "INCLINATION": 74.1072, "RA_OF_ASC_NODE": 109.8528, "ARG_OF_PERICENTER": 209.1496, "MEAN_ANOMALY": 149.0776, "EPHEMERIS_TYPE": 0, "CLASSIFICATION_TYPE": "U", "NORAD_CAT_ID": 33917, "ELEMENT_SET_NO": 999, "REV_AT_EPOCH": 83838, "BSTAR": 0.00061402053, "MEAN_MOTION_DOT": 7.62e-06, "MEAN_MOTION_DDOT": 0}, "tle": {"line1": "1 33917U 93036DW  25354.38813225  .00000762  00000+0  61402-3 0  9995", "line2": "2 33917  74.1072 109.8528 0331279 209.1496 149.0776 13.69374091838382"}}, "geometry": {"type": "Point", "coordinates": [-31.99923221013039, -65.94858242287155]}}, {"type": "Feature", "properties": {"norad_id": 33920, "name": "COSMOS 2251 DEB", "group": "cosmos-2251-debris", "lat": -14.656193369847088, "lon": 106.41571294624636, "alt_km": 703.6744720828528, "timestamp": "2025-12-21T07:34:34.907756+00:00", "meta": {"OBJECT_NAME": "COSMOS 2251 DEB", "OBJECT_ID": "1993-036DZ", "EPOCH": "2025-12-20T20:48:09.627840", "MEAN_MOTION": 14.58390776, "ECCENTRICITY": 0.00379239, "INCLINATION": 74.062, "RA_OF_ASC_NODE": 282.9824, "ARG_OF_PERICENTER": 288.4211, "MEAN_ANOMALY": 71.2832, "EPHEMERIS_TYPE": 0, "CLASSIFICATION_TYPE": "U", "NORAD_CAT_ID": 33920, "ELEMENT_SET_NO": 999, "REV_AT_EPOCH": 88233, "BSTAR": 0.0010682708, "MEAN_MOTION_DOT": 4.973e-05, "MEAN_MOTION_DDOT": 0}, "tle": {"line1": "1 33920U 93036DZ  25354.86677810  .00004973  00000+0  10683-2 0  9992", "line2": "2 33920  74.0620 282.9824 0037923 288.4211  71.2832 14.58390776882330"}}, "geometry": {"type": "Point", "coordinates": [106.41571294624636, -14.656193369847088]}}, {"type": "Feature", "properties": {"norad_id": 33922, "name": "COSMOS 2251 DEB", "group": "cosmos-2251-debris", "lat": 60.910433073112, "lon": 162.6241830934863, "alt_km": 737.3264717955262, "timestamp": "2025-12-21T07:34:34.907765+00:00", "meta": {"OBJECT_NAME": "COSMOS 2251 DEB", "OBJECT_ID": "1993-036EB", "EPOCH": "2025-12-20T20:25:31.253088", "MEAN_MOTION": 14.49533448, "ECCENTRICITY": 0.00231816, "INCLINATION": 74.0467, "RA_OF_ASC_NODE": 132.5543, "ARG_OF_PERICENTER": 242.2195, "MEAN_ANOMALY": 279.6206, "EPHEMERIS_TYPE": 0, "CLASSIFICATION_TYPE": "U", "NORAD_CAT_ID": 33922, "ELEMENT_SET_NO": 999, "REV_AT_EPOCH": 88695, "BSTAR": 0.00032538056, "MEAN_MOTION_DOT": 1.224e-05, "MEAN_MOTION_DDOT": 0}, "tle": {"line1": "1 33922U 93036EB  25354.85105617  .00001224  00000+0  32538-3 0  9994", "line2": "2 33922  74.0467 132.5543 0023181 242.2195 279.6206 14.49533448886955"}}, "geometry": {"type": "Point", "coordinates": [162.6241830934863, 60.910433073112]}}, {"type": "Feature", "properties": {"norad_id": 33924, "name": "COSMOS 2251 DEB", "group": "cosmos-2251-debris", "lat": 10.398146028651036, "lon": 73.38140770749241, "alt_km": 1219.6599585988006, "timestamp": "2025-12-21T07:34:34.907774+00:00", "meta": {"OBJECT_NAME": "COSMOS 2251 DEB", "OBJECT_ID": "1993-036ED", "EPOCH": "2025-12-20T23:35:18.203712", "MEAN_MOTION": 13.50235063, "ECCENTRICITY": 0.04038813, "INCLINATION": 73.9134, "RA_OF_ASC_NODE": 256.9514, "ARG_OF_PERICENTER": 290.9507, "MEAN_ANOMALY": 64.8826, "EPHEMERIS_TYPE": 0, "CLASSIFICATION_TYPE": "U", "NORAD_CAT_ID": 33924, "ELEMENT_SET_NO": 999, "REV_AT_EPOCH": 82850, "BSTAR": 0.00037566881, "MEAN_MOTION_DOT": 3.74e-06, "MEAN_MOTION_DDOT": 0}, "tle": {"line1": "1 33924U 93036ED  25354.98284958  .00000374  00000+0  37567-3 0  9998", "line2": "2 33924  73.9134 256.9514 0403881 290.9507  64.8826 13.50235063828503"}}, "geometry": {"type": "Point", "coordinates": [73.38140770749241, 10.398146028651036]}}, {"type": "Feature", "properties": {"norad_id": 33928, "name": "COSMOS 2251 DEB", "group": "cosmos-2251-debris", "lat": -22.661454256644443, "lon": -136.66628403392028, "alt_km": 764.3271779281749, "timestamp": "2025-12-21T07:34:34.907783+00:00", "meta": {"OBJECT_NAME": "COSMOS 2251 DEB", "OBJECT_ID": "1993-036EH", "EPOCH": "2025-12-20T12:23:17.034432", "MEAN_MOTION": 14.47417403, "ECCENTRICITY": 0.0061856, "INCLINATION": 73.9255, "RA_OF_ASC_NODE": 37.9239, "ARG_OF_PERICENTER": 330.4254, "MEAN_ANOMALY": 29.341, "EPHEMERIS_TYPE": 0, "CLASSIFICATION_TYPE": "U", "NORAD_CAT_ID": 33928, "ELEMENT_SET_NO": 999, "REV_AT_EPOCH": 88757, "BSTAR": 0.00017211, "MEAN_MOTION_DOT": 6.17e-06, "MEAN_MOTION_DDOT": 0}, "tle": {"line1": "1 33928U 93036EH  25354.51616938  .00000617  00000+0  17211-3 0  9992", "line2": "2 33928  73.9255  37.9239 0061856 330.4254  29.3410 14.47417403887577"}}, "geometry": {"type": "Point", "coordinates": [-136.66628403392028, -22.661454256644443]}}, {"type": "Feature", "properties": {"norad_id": 33932, "name": "COSMOS 2251 DEB", "group": "cosmos-2251-debris", "lat": 68.33933473030439, "lon": -13.775410383086752, "alt_km": 743.0921436435792, "timestamp": "2025-12-21T07:34:34.907792+00:00", "meta": {"OBJECT_NAME": "COSMOS 2251 DEB", "OBJECT_ID": "1993-036EM", "EPOCH": "2025-12-20T21:13:04.543968", "MEAN_MOTION": 14.38779557, "ECCENTRICITY": 0.00357482, "INCLINATION": 74.0342, "RA_OF_ASC_NODE": 300.8962, "ARG_OF_PERICENTER": 15.0884, "MEAN_ANOMALY": 345.1327, "EPHEMERIS_TYPE": 0, "CLASSIFICATION_TYPE": "U", "NORAD_CAT_ID": 33932, "ELEMENT_SET_NO": 999, "REV_AT_EPOCH": 88115, "BSTAR": 0.00033256474, "MEAN_MOTION_DOT": 1.003e-05, "MEAN_MOTION_DDOT": 0}, "tle": {"line1": "1 33932U 93036EM  25354.88408037  .00001003  00000+0  33256-3 0  9993", "line2": "2 33932  74.0342 300.8962 0035748  15.0884 345.1327 14.38779557881157"}}, "geometry": {"type": "Point", "coordinates": [-13.775410383086752, 68.33933473030439]}}, {"type": "Feature", "properties": {"norad_id": 33933, "name": "COSMOS 2251 DEB", "group": "cosmos-2251-debris", "lat": 55.255177636935194, "lon": -159.77675816480865, "alt_km": 757.4706263483804, "timestamp": "2025-12-21T07:34:34.907801+00:00", "meta": {"OBJECT_NAME": "COSMOS 2251 DEB", "OBJECT_ID": "1993-036EN", "EPOCH": "2025-12-20T04:13:15.585312", "MEAN_MOTION": 14.33499387, "ECCENTRICITY": 0.00708922, "INCLINATION": 74.0891, "RA_OF_ASC_NODE": 46.5839, "ARG_OF_PERICENTER": 52.7662, "MEAN_ANOMALY": 307.9929, "EPHEMERIS_TYPE": 0, "CLASSIFICATION_TYPE": "U", "NORAD_CAT_ID": 33933, "ELEMENT_SET_NO": 999, "REV_AT_EPOCH": 87891, "BSTAR": 0.00018603773, "MEAN_MOTION_DOT": 5.04e-06, "MEAN_MOTION_DDOT": 0}, "tle": {"line1": "1 33933U 93036EN  25354.17587483  .00000504  00000+0  18604-3 0  9994", "line2": "2 33933  74.0891  46.5839 0070892  52.7662 307.9929 14.33499387878914"}}, "geometry": {"type": "Point", "coordinates": [-159.77675816480865, 55.255177636935194]}}, {"type": "Feature", "properties": {"norad_id": 33934, "name": "COSMOS 2251 DEB", "group": "cosmos-2251-debris", "lat": -48.95742126499772, "lon": 65.03923019292168, "alt_km": 704.337848945077, "timestamp": "2025-12-21T07:34:34.907811+00:00", "meta": {"OBJECT_NAME": "COSMOS 2251 DEB", "OBJECT_ID": "1993-036EP", "EPOCH": "2025-12-20T15:21:31.141728", "MEAN_MOTION": 14.5916745, "ECCENTRICITY": 0.0015357, "INCLINATION": 74.0383, "RA_OF_ASC_NODE": 85.5194, "ARG_OF_PERICENTER": 209.3264, "MEAN_ANOMALY": 150.7041, "EPHEMERIS_TYPE": 0, "CLASSIFICATION_TYPE": "U", "NORAD_CAT_ID": 33934, "ELEMENT_SET_NO": 999, "REV_AT_EPOCH": 88854, "BSTAR": 0.00054829204, "MEAN_MOTION_DOT": 2.559e-05, "MEAN_MOTION_DDOT": 0}, "tle": {"line1": "1 33934U 93036EP  25354.63994377  .00002559  00000+0  54829-3 0  9991", "line2": "2 33934  74.0383  85.5194 0015357 209.3264 150.7041 14.59167450888541"}}, "geometry": {"type": "Point", "coordinates": [65.03923019292168, -48.95742126499772]}}, {"type": "Feature", "properties": {"norad_id": 33936, "name": "COSMOS 2251 DEB", "group": "cosmos-2251-debris", "lat": -73.87119468057898, "lon": -61.245264920998366, "alt_km": 701.5727694909547, "timestamp": "2025-12-21T07:34:34.907820+00:00", "meta": {"OBJECT_NAME": "COSMOS 2251 DEB", "OBJECT_ID": "1993-036ER", "EPOCH": "2025-12-20T12:14:59.457696", "MEAN_MOTION": 14.60314226, "ECCENTRICITY": 0.0027004, "INCLINATION": 74.0178, "RA_OF_ASC_NODE": 22.632, "ARG_OF_PERICENTER": 176.2974, "MEAN_ANOMALY": 183.8397, "EPHEMERIS_TYPE": 0, "CLASSIFICATION_TYPE": "U", "NORAD_CAT_ID": 33936, "ELEMENT_SET_NO": 999, "REV_AT_EPOCH": 89003, "BSTAR": 0.00039954, "MEAN_MOTION_DOT": 1.91e-05, "MEAN_MOTION_DDOT": 0}, "tle": {"line1": "1 33936U 93036ER  25354.51041039  .00001910  00000+0  39954-3 0  9990", "line2": "2 33936  74.0178  22.6320 0027004 176.2974 183.8397 14.60314226890035"}}, "geometry": {"type": "Point", "coordinates": [-61.245264920998366, -73.87119468057898]}}, {"type": "Feature", "properties": {"norad_id": 33938, "name": "COSMOS 2251 DEB", "group": "cosmos-2251-debris", "lat": 64.08871637093654, "lon": -132.75494427256626, "alt_km": 740.4657397246137, "timestamp": "2025-12-21T07:34:34.907829+00:00", "meta": {"OBJECT_NAME": "COSMOS 2251 DEB", "OBJECT_ID": "1993-036ET", "EPOCH": "2025-12-20T21:35:57.280128", "MEAN_MOTION": 14.46815606, "ECCENTRICITY": 0.00168318, "INCLINATION": 74.0437, "RA_OF_ASC_NODE": 191.9407, "ARG_OF_PERICENTER": 273.4263, "MEAN_ANOMALY": 151.4755, "EPHEMERIS_TYPE": 0, "CLASSIFICATION_TYPE": "U", "NORAD_CAT_ID": 33938, "ELEMENT_SET_NO": 999, "REV_AT_EPOCH": 88518, "BSTAR": 0.00029628989, "MEAN_MOTION_DOT": 1.048e-05, "MEAN_MOTION_DDOT": 0}, "tle": {"line1": "1 33938U 93036ET  25354.89996852  .00001048  00000+0  29629-3 0  9995", "line2": "2 33938  74.0437 191.9407 0016831 273.4263 151.4755 14.46815606885189"}}, "geometry": {"type": "Point", "coordinates": [-132.75494427256626, 64.08871637093654]}}]}